[{"OBJECT_NAME":"QIANFAN-34","OBJECT_ID":"2024-185R","EPOCH":"2026-03-09T23:48:13.151232","MEAN_MOTION":14.02387814,"ECCENTRICITY":0.00081871,"INCLINATION":88.9718,"RA_OF_ASC_NODE":68.5076,"ARG_OF_PERICENTER":66.0949,"MEAN_ANOMALY":294.1088,"EPHEMERIS_TYPE":0,"CLASSIFICATION_TYPE":"U","NORAD_CAT_ID":61567,"ELEMENT_SET_NO":999,"REV_AT_EPOCH":8158,"BSTAR":0.00037025397,"MEAN_MOTION_DOT":5.82e-6,"MEAN_MOTION_DDOT":0},{"OBJECT_NAME":"DELTA 1 DEB","OBJECT_ID":"1978-026DF","EPOCH":"2026-03-09T08:37:45.559776","MEAN_MOTION":14.20322119,"ECCENTRICITY":0.00955525,"INCLINATION":99.0073,"RA_OF_ASC_NODE":214.334,"ARG_OF_PERICENTER":131.0799,"MEAN_ANOMALY":283.6835,"EPHEMERIS_TYPE":0,"CLASSIFICATION_TYPE":"U","NORAD_CAT_ID":12262,"ELEMENT_SET_NO":999,"REV_AT_EPOCH":29027,"BSTAR":0.0018460016,"MEAN_MOTION_DOT":4.093e-5,"MEAN_MOTION_DDOT":0}]
